{"fetched_at":"2026-07-12T07:15:18.323Z","source":"https://celestrak.org/NORAD/elements/gp.php?GROUP=kuiper&FORMAT=JSON","constellation":"kuiper","records":[{"OBJECT_NAME":"KUIPER-00272","OBJECT_ID":"2026-072R","EPOCH":"2026-07-10T23:08:26.087712","CLASSIFICATION_TYPE":"U","MEAN_MOTION":14.79919744,"ECCENTRICITY":0.00008375,"INCLINATION":51.8985,"RA_OF_ASC_NODE":87.9953,"ARG_OF_PERICENTER":106.7637,"MEAN_ANOMALY":253.3417,"EPHEMERIS_TYPE":0,"NORAD_CAT_ID":68588,"ELEMENT_SET_NO":999,"REV_AT_EPOCH":1467,"BSTAR":0.00028908134,"MEAN_MOTION_DOT":0.00001983,"MEAN_MOTION_DDOT":0},{"OBJECT_NAME":"KUIPER-00285","OBJECT_ID":"2026-072S","EPOCH":"2026-07-11T22:00:03.000096","CLASSIFICATION_TYPE":"U","MEAN_MOTION":14.81271,"ECCENTRICITY":0.0001021,"INCLINATION":51.9422,"RA_OF_ASC_NODE":63.8604,"ARG_OF_PERICENTER":81.1185,"MEAN_ANOMALY":201.2248,"EPHEMERIS_TYPE":0,"NORAD_CAT_ID":68589,"ELEMENT_SET_NO":999,"REV_AT_EPOCH":506,"BSTAR":-0.081729475,"MEAN_MOTION_DOT":-0.00603593,"MEAN_MOTION_DDOT":0},{"OBJECT_NAME":"KUIPER-00286","OBJECT_ID":"2026-072T","EPOCH":"2026-07-11T22:00:03.000096","CLASSIFICATION_TYPE":"U","MEAN_MOTION":14.87099704,"ECCENTRICITY":0.00070925,"INCLINATION":51.8991,"RA_OF_ASC_NODE":61.0253,"ARG_OF_PERICENTER":59.1185,"MEAN_ANOMALY":349.7032,"EPHEMERIS_TYPE":0,"NORAD_CAT_ID":68590,"ELEMENT_SET_NO":999,"REV_AT_EPOCH":574,"BSTAR":-0.0065668357,"MEAN_MOTION_DOT":-0.00059291,"MEAN_MOTION_DDOT":0},{"OBJECT_NAME":"KUIPER-00289","OBJECT_ID":"2026-072U","EPOCH":"2026-07-11T20:35:52.183968","CLASSIFICATION_TYPE":"U","MEAN_MOTION":14.79938018,"ECCENTRICITY":0.0000734,"INCLINATION":51.8993,"RA_OF_ASC_NODE":69.0589,"ARG_OF_PERICENTER":127.1529,"MEAN_ANOMALY":232.9501,"EPHEMERIS_TYPE":0,"NORAD_CAT_ID":68591,"ELEMENT_SET_NO":999,"REV_AT_EPOCH":1501,"BSTAR":0.00026734851,"MEAN_MOTION_DOT":0.00001818,"MEAN_MOTION_DDOT":0},{"OBJECT_NAME":"KUIPER-00290","OBJECT_ID":"2026-072V","EPOCH":"2026-07-11T22:00:03.000096","CLASSIFICATION_TYPE":"U","MEAN_MOTION":14.77092593,"ECCENTRICITY":0.0002746,"INCLINATION":51.9024,"RA_OF_ASC_NODE":67.2106,"ARG_OF_PERICENTER":29.791,"MEAN_ANOMALY":198.7992,"EPHEMERIS_TYPE":0,"NORAD_CAT_ID":68592,"ELEMENT_SET_NO":999,"REV_AT_EPOCH":438,"BSTAR":-0.01240549,"MEAN_MOTION_DOT":-0.00087502,"MEAN_MOTION_DDOT":0},{"OBJECT_NAME":"KUIPER-00293","OBJECT_ID":"2026-072W","EPOCH":"2026-07-10T02:12:01.551168","CLASSIFICATION_TYPE":"U","MEAN_MOTION":14.79934757,"ECCENTRICITY":0.00027884,"INCLINATION":51.8987,"RA_OF_ASC_NODE":86.8548,"ARG_OF_PERICENTER":116.1338,"MEAN_ANOMALY":243.9912,"EPHEMERIS_TYPE":0,"NORAD_CAT_ID":68593,"ELEMENT_SET_NO":999,"REV_AT_EPOCH":1461,"BSTAR":0.00035806126,"MEAN_MOTION_DOT":0.00002509,"MEAN_MOTION_DDOT":0},{"OBJECT_NAME":"KUIPER-00294","OBJECT_ID":"2026-072X","EPOCH":"2026-07-11T20:38:25.489536","CLASSIFICATION_TYPE":"U","MEAN_MOTION":14.78783216,"ECCENTRICITY":0.00016972,"INCLINATION":51.9007,"RA_OF_ASC_NODE":66.5397,"ARG_OF_PERICENTER":76.8019,"MEAN_ANOMALY":283.3133,"EPHEMERIS_TYPE":0,"NORAD_CAT_ID":68594,"ELEMENT_SET_NO":999,"REV_AT_EPOCH":1505,"BSTAR":0.00021617285,"MEAN_MOTION_DOT":0.00001385,"MEAN_MOTION_DDOT":0},{"OBJECT_NAME":"KUIPER-00296","OBJECT_ID":"2026-072Y","EPOCH":"2026-07-11T22:00:03.000096","CLASSIFICATION_TYPE":"U","MEAN_MOTION":15.3718813,"ECCENTRICITY":0.00097468,"INCLINATION":51.8705,"RA_OF_ASC_NODE":57.24,"ARG_OF_PERICENTER":109.0972,"MEAN_ANOMALY":324.5808,"EPHEMERIS_TYPE":0,"NORAD_CAT_ID":68595,"ELEMENT_SET_NO":999,"REV_AT_EPOCH":582,"BSTAR":-0.0001087567,"MEAN_MOTION_DOT":-0.00004423,"MEAN_MOTION_DDOT":0},{"OBJECT_NAME":"KUIPER-00297","OBJECT_ID":"2026-072Z","EPOCH":"2026-07-11T20:25:38.858016","CLASSIFICATION_TYPE":"U","MEAN_MOTION":14.76357877,"ECCENTRICITY":0.00011572,"INCLINATION":51.9006,"RA_OF_ASC_NODE":78.7533,"ARG_OF_PERICENTER":130.6418,"MEAN_ANOMALY":229.4643,"EPHEMERIS_TYPE":0,"NORAD_CAT_ID":68596,"ELEMENT_SET_NO":999,"REV_AT_EPOCH":1488,"BSTAR":0.00011779854,"MEAN_MOTION_DOT":0.00000611,"MEAN_MOTION_DDOT":0},{"OBJECT_NAME":"KUIPER-00300","OBJECT_ID":"2026-072AA","EPOCH":"2026-07-11T20:14:19.000608","CLASSIFICATION_TYPE":"U","MEAN_MOTION":14.76473997,"ECCENTRICITY":0.00018679,"INCLINATION":51.9036,"RA_OF_ASC_NODE":75.8487,"ARG_OF_PERICENTER":126.4606,"MEAN_ANOMALY":233.6527,"EPHEMERIS_TYPE":0,"NORAD_CAT_ID":68597,"ELEMENT_SET_NO":999,"REV_AT_EPOCH":1492,"BSTAR":0.00011958993,"MEAN_MOTION_DOT":0.00000625,"MEAN_MOTION_DDOT":0},{"OBJECT_NAME":"KUIPER-00301","OBJECT_ID":"2026-072AB","EPOCH":"2026-07-11T20:06:48.244032","CLASSIFICATION_TYPE":"U","MEAN_MOTION":15.38693985,"ECCENTRICITY":0.00095444,"INCLINATION":51.8659,"RA_OF_ASC_NODE":57.5693,"ARG_OF_PERICENTER":110.7214,"MEAN_ANOMALY":249.4797,"EPHEMERIS_TYPE":0,"NORAD_CAT_ID":68598,"ELEMENT_SET_NO":999,"REV_AT_EPOCH":1517,"BSTAR":0.0005976939,"MEAN_MOTION_DOT":0.00022917,"MEAN_MOTION_DDOT":0},{"OBJECT_NAME":"KUIPER-00304","OBJECT_ID":"2026-072AC","EPOCH":"2026-07-11T18:52:42.605472","CLASSIFICATION_TYPE":"U","MEAN_MOTION":15.38499181,"ECCENTRICITY":0.00118091,"INCLINATION":51.8675,"RA_OF_ASC_NODE":57.9829,"ARG_OF_PERICENTER":112.8231,"MEAN_ANOMALY":247.4004,"EPHEMERIS_TYPE":0,"NORAD_CAT_ID":68599,"ELEMENT_SET_NO":999,"REV_AT_EPOCH":1516,"BSTAR":0.00057077614,"MEAN_MOTION_DOT":0.00021739,"MEAN_MOTION_DDOT":0},{"OBJECT_NAME":"KUIPER-00317","OBJECT_ID":"2026-072AD","EPOCH":"2026-07-11T19:51:08.779680","CLASSIFICATION_TYPE":"U","MEAN_MOTION":14.79964514,"ECCENTRICITY":0.0001778,"INCLINATION":51.8994,"RA_OF_ASC_NODE":66.7071,"ARG_OF_PERICENTER":135.7017,"MEAN_ANOMALY":224.4088,"EPHEMERIS_TYPE":0,"NORAD_CAT_ID":68600,"ELEMENT_SET_NO":999,"REV_AT_EPOCH":1504,"BSTAR":0.00050139515,"MEAN_MOTION_DOT":0.00003606,"MEAN_MOTION_DDOT":0},{"OBJECT_NAME":"KUIPER-00320","OBJECT_ID":"2026-072AE","EPOCH":"2026-07-11T01:53:42.623520","CLASSIFICATION_TYPE":"U","MEAN_MOTION":14.7992359,"ECCENTRICITY":0.00007209,"INCLINATION":51.9023,"RA_OF_ASC_NODE":75.004,"ARG_OF_PERICENTER":119.4256,"MEAN_ANOMALY":240.6779,"EPHEMERIS_TYPE":0,"NORAD_CAT_ID":68601,"ELEMENT_SET_NO":999,"REV_AT_EPOCH":1486,"BSTAR":0.00028487267,"MEAN_MOTION_DOT":0.00001951,"MEAN_MOTION_DDOT":0},{"OBJECT_NAME":"KUIPER-00299","OBJECT_ID":"2026-095A","EPOCH":"2026-07-11T07:06:45.152352","CLASSIFICATION_TYPE":"U","MEAN_MOTION":14.7647119,"ECCENTRICITY":0.00015428,"INCLINATION":51.8993,"RA_OF_ASC_NODE":142.5206,"ARG_OF_PERICENTER":253.6818,"MEAN_ANOMALY":106.3973,"EPHEMERIS_TYPE":0,"NORAD_CAT_ID":68864,"ELEMENT_SET_NO":999,"REV_AT_EPOCH":1120,"BSTAR":0.00020465214,"MEAN_MOTION_DOT":0.00001223,"MEAN_MOTION_DDOT":0},{"OBJECT_NAME":"KUIPER-00353","OBJECT_ID":"2026-095B","EPOCH":"2026-07-11T22:00:03.000096","CLASSIFICATION_TYPE":"U","MEAN_MOTION":14.87008629,"ECCENTRICITY":0.00044073,"INCLINATION":51.8989,"RA_OF_ASC_NODE":126.4486,"ARG_OF_PERICENTER":29.8916,"MEAN_ANOMALY":357.1695,"EPHEMERIS_TYPE":0,"NORAD_CAT_ID":68865,"ELEMENT_SET_NO":999,"REV_AT_EPOCH":520,"BSTAR":-0.0070155134,"MEAN_MOTION_DOT":-0.00063128,"MEAN_MOTION_DDOT":0}]}
